{
  "type": "FeatureCollection",
  "features": [
    {
      "type": "Feature",
      "properties": {
        "norad_id": 67025,
        "name": "STARLINK-36178",
        "group": "last-30-days",
        "lat": -16.900871819008604,
        "lon": -80.8013015394185,
        "alt_km": 349.3696576011316,
        "timestamp": "2025-12-25T22:42:15.711540+00:00",
        "meta_object_name": "STARLINK-36178",
        "meta_object_id": "2025-293Y",
        "meta_epoch": "2025-12-25T18:00:02.000160",
        "meta_mean_motion": 15.75420369,
        "meta_eccentricity": 0.0003727,
        "meta_inclination": 69.9937,
        "meta_ra_of_asc_node": 286.1099,
        "meta_arg_of_pericenter": 262.4263,
        "meta_mean_anomaly": 48.6418,
        "meta_ephemeris_type": 0,
        "meta_classification_type": "U",
        "meta_norad_cat_id": 67025,
        "meta_element_set_no": 999,
        "meta_rev_at_epoch": 231,
        "meta_bstar": -0.011971,
        "meta_mean_motion_dot": -0.01588355,
        "meta_mean_motion_ddot": 0,
        "tle_line1": "1 67025U 25293Y   25359.75002315 -.01588355  00000+0 -11971-1 0  9994",
        "tle_line2": "2 67025  69.9937 286.1099 0003727 262.4263  48.6418 15.75420369  2313"
      },
      "geometry": {
        "type": "Point",
        "coordinates": [
          -80.8013015394185,
          -16.900871819008604
        ]
      }
    },
    {
      "type": "Feature",
      "properties": {
        "norad_id": 67026,
        "name": "STARLINK-36176",
        "group": "last-30-days",
        "lat": -12.476933833898595,
        "lon": -79.07556192239718,
        "alt_km": 349.0827230093382,
        "timestamp": "2025-12-25T22:42:15.711550+00:00",
        "meta_object_name": "STARLINK-36176",
        "meta_object_id": "2025-293Z",
        "meta_epoch": "2025-12-25T18:00:02.000160",
        "meta_mean_motion": 15.75380004,
        "meta_eccentricity": 0.0003605,
        "meta_inclination": 69.9933,
        "meta_ra_of_asc_node": 286.104,
        "meta_arg_of_pericenter": 266.5132,
        "meta_mean_anomaly": 49.3167,
        "meta_ephemeris_type": 0,
        "meta_classification_type": "U",
        "meta_norad_cat_id": 67026,
        "meta_element_set_no": 999,
        "meta_rev_at_epoch": 231,
        "meta_bstar": -0.011991,
        "meta_mean_motion_dot": -0.0158805,
        "meta_mean_motion_ddot": 0,
        "tle_line1": "1 67026U 25293Z   25359.75002315 -.01588050  00000+0 -11991-1 0  9999",
        "tle_line2": "2 67026  69.9933 286.1040 0003605 266.5132  49.3167 15.75380004  2311"
      },
      "geometry": {
        "type": "Point",
        "coordinates": [
          -79.07556192239718,
          -12.476933833898595
        ]
      }
    },
    {
      "type": "Feature",
      "properties": {
        "norad_id": 67027,
        "name": "STARLINK-36171",
        "group": "last-30-days",
        "lat": -14.472210491766928,
        "lon": -79.84486876635167,
        "alt_km": 349.3272686380333,
        "timestamp": "2025-12-25T22:42:15.711561+00:00",
        "meta_object_name": "STARLINK-36171",
        "meta_object_id": "2025-293AA",
        "meta_epoch": "2025-12-25T18:00:02.000160",
        "meta_mean_motion": 15.75389979,
        "meta_eccentricity": 0.0003666,
        "meta_inclination": 69.993,
        "meta_ra_of_asc_node": 286.1066,
        "meta_arg_of_pericenter": 262.6947,
        "meta_mean_anomaly": 50.9949,
        "meta_ephemeris_type": 0,
        "meta_classification_type": "U",
        "meta_norad_cat_id": 67027,
        "meta_element_set_no": 999,
        "meta_rev_at_epoch": 231,
        "meta_bstar": -0.011992,
        "meta_mean_motion_dot": -0.01588786,
        "meta_mean_motion_ddot": 0,
        "tle_line1": "1 67027U 25293AA  25359.75002315 -.01588786  00000+0 -11992-1 0  9997",
        "tle_line2": "2 67027  69.9930 286.1066 0003666 262.6947  50.9949 15.75389979  2311"
      },
      "geometry": {
        "type": "Point",
        "coordinates": [
          -79.84486876635167,
          -14.472210491766928
        ]
      }
    },
    {
      "type": "Feature",
      "properties": {
        "norad_id": 67028,
        "name": "STARLINK-36132",
        "group": "last-30-days",
        "lat": -8.010625545786269,
        "lon": -77.3963350752554,
        "alt_km": 348.8489608087939,
        "timestamp": "2025-12-25T22:42:15.711571+00:00",
        "meta_object_name": "STARLINK-36132",
        "meta_object_id": "2025-293AB",
        "meta_epoch": "2025-12-25T18:00:02.000160",
        "meta_mean_motion": 15.75335021,
        "meta_eccentricity": 0.0003823,
        "meta_inclination": 69.9938,
        "meta_ra_of_asc_node": 286.0979,
        "meta_arg_of_pericenter": 267.761,
        "meta_mean_anomaly": 52.8624,
        "meta_ephemeris_type": 0,
        "meta_classification_type": "U",
        "meta_norad_cat_id": 67028,
        "meta_element_set_no": 999,
        "meta_rev_at_epoch": 231,
        "meta_bstar": -0.011993,
        "meta_mean_motion_dot": -0.01585788,
        "meta_mean_motion_ddot": 0,
        "tle_line1": "1 67028U 25293AB  25359.75002315 -.01585788  00000+0 -11993-1 0  9998",
        "tle_line2": "2 67028  69.9938 286.0979 0003823 267.7610  52.8624 15.75335021  2310"
      },
      "geometry": {
        "type": "Point",
        "coordinates": [
          -77.3963350752554,
          -8.010625545786269
        ]
      }
    },
    {
      "type": "Feature",
      "properties": {
        "norad_id": 67029,
        "name": "STARLINK-36190",
        "group": "last-30-days",
        "lat": -10.403821318938341,
        "lon": -78.28991663532813,
        "alt_km": 349.0190204520859,
        "timestamp": "2025-12-25T22:42:15.711581+00:00",
        "meta_object_name": "STARLINK-36190",
        "meta_object_id": "2025-293AC",
        "meta_epoch": "2025-12-25T18:00:02.000160",
        "meta_mean_motion": 15.75366509,
        "meta_eccentricity": 0.000371,
        "meta_inclination": 69.9936,
        "meta_ra_of_asc_node": 286.101,
        "meta_arg_of_pericenter": 265.7218,
        "meta_mean_anomaly": 52.3293,
        "meta_ephemeris_type": 0,
        "meta_classification_type": "U",
        "meta_norad_cat_id": 67029,
        "meta_element_set_no": 999,
        "meta_rev_at_epoch": 231,
        "meta_bstar": -0.012004,
        "meta_mean_motion_dot": -0.01588842,
        "meta_mean_motion_ddot": 0,
        "tle_line1": "1 67029U 25293AC  25359.75002315 -.01588842  00000+0 -12004-1 0  9997",
        "tle_line2": "2 67029  69.9936 286.1010 0003710 265.7218  52.3293 15.75366509  2315"
      },
      "geometry": {
        "type": "Point",
        "coordinates": [
          -78.28991663532813,
          -10.403821318938341
        ]
      }
    },
    {
      "type": "Feature",
      "properties": {
        "norad_id": 67030,
        "name": "STARLINK-36138",
        "group": "last-30-days",
        "lat": -40.8422055620765,
        "lon": -10.39752264303377,
        "alt_km": 366.46532070752255,
        "timestamp": "2025-12-25T22:42:15.711598+00:00",
        "meta_object_name": "STARLINK-36138",
        "meta_object_id": "2025-294A",
        "meta_epoch": "2025-12-25T18:00:02.000160",
        "meta_mean_motion": 15.68979063,
        "meta_eccentricity": 0.000137,
        "meta_inclination": 42.9993,
        "meta_ra_of_asc_node": 102.6984,
        "meta_arg_of_pericenter": 277.3101,
        "meta_mean_anomaly": 308.1866,
        "meta_ephemeris_type": 0,
        "meta_classification_type": "U",
        "meta_norad_cat_id": 67030,
        "meta_element_set_no": 999,
        "meta_rev_at_epoch": 220,
        "meta_bstar": -0.018002,
        "meta_mean_motion_dot": -0.01896778,
        "meta_mean_motion_ddot": 0,
        "tle_line1": "1 67030U 25294A   25359.75002315 -.01896778  00000+0 -18002-1 0  9994",
        "tle_line2": "2 67030  42.9993 102.6984 0001370 277.3101 308.1866 15.68979063  2206"
      },
      "geometry": {
        "type": "Point",
        "coordinates": [
          -10.39752264303377,
          -40.8422055620765
        ]
      }
    },
    {
      "type": "Feature",
      "properties": {
        "norad_id": 67031,
        "name": "STARLINK-36150",
        "group": "last-30-days",
        "lat": -41.28391650854983,
        "lon": -8.049558291868685,
        "alt_km": 366.43659568963267,
        "timestamp": "2025-12-25T22:42:15.711608+00:00",
        "meta_object_name": "STARLINK-36150",
        "meta_object_id": "2025-294B",
        "meta_epoch": "2025-12-25T18:00:02.000160",
        "meta_mean_motion": 15.68985054,
        "meta_eccentricity": 0.0001414,
        "meta_inclination": 42.9996,
        "meta_ra_of_asc_node": 102.6933,
        "meta_arg_of_pericenter": 278.6433,
        "meta_mean_anomaly": 308.6804,
        "meta_ephemeris_type": 0,
        "meta_classification_type": "U",
        "meta_norad_cat_id": 67031,
        "meta_element_set_no": 999,
        "meta_rev_at_epoch": 239,
        "meta_bstar": -0.017997,
        "meta_mean_motion_dot": -0.0189678,
        "meta_mean_motion_ddot": 0,
        "tle_line1": "1 67031U 25294B   25359.75002315 -.01896780  00000+0 -17997-1 0  9990",
        "tle_line2": "2 67031  42.9996 102.6933 0001414 278.6433 308.6804 15.68985054  2399"
      },
      "geometry": {
        "type": "Point",
        "coordinates": [
          -8.049558291868685,
          -41.28391650854983
        ]
      }
    }
  ]
}